{
  "type": "FeatureCollection",
  "features": [
    {
      "type": "Feature",
      "properties": {
        "norad_id": 35594,
        "name": "COSMOS 2251 DEB",
        "group": "cosmos-2251-debris",
        "lat": 17.585354991955647,
        "lon": -74.04445817567942,
        "alt_km": 594.4815912135846,
        "timestamp": "2025-12-10T09:57:45.094196+00:00",
        "meta_object_name": "COSMOS 2251 DEB",
        "meta_object_id": "1993-036AMM",
        "meta_epoch": "2025-12-09T02:34:25.968000",
        "meta_mean_motion": 14.87749225,
        "meta_eccentricity": 0.00305448,
        "meta_inclination": 73.8074,
        "meta_ra_of_asc_node": 113.8828,
        "meta_arg_of_pericenter": 225.3103,
        "meta_mean_anomaly": 134.5588,
        "meta_ephemeris_type": 0,
        "meta_classification_type": "U",
        "meta_norad_cat_id": 35594,
        "meta_element_set_no": 999,
        "meta_rev_at_epoch": 88131,
        "meta_bstar": 0.0022507147,
        "meta_mean_motion_dot": 0.00020735,
        "meta_mean_motion_ddot": 0,
        "tle_line1": "1 35594U 93036AMM 25343.10724500  .00020735  00000+0  22507-2 0  9997",
        "tle_line2": "2 35594  73.8074 113.8828 0030544 225.3103 134.5588 14.87749225881314"
      },
      "geometry": {
        "type": "Point",
        "coordinates": [
          -74.04445817567942,
          17.585354991955647
        ]
      }
    },
    {
      "type": "Feature",
      "properties": {
        "norad_id": 35602,
        "name": "COSMOS 2251 DEB",
        "group": "cosmos-2251-debris",
        "lat": -54.659627424662936,
        "lon": 31.0922204051032,
        "alt_km": 408.3056929841523,
        "timestamp": "2025-12-10T09:57:45.094206+00:00",
        "meta_object_name": "COSMOS 2251 DEB",
        "meta_object_id": "1993-036AMV",
        "meta_epoch": "2025-12-09T22:14:58.154208",
        "meta_mean_motion": 15.34923103,
        "meta_eccentricity": 0.0090186,
        "meta_inclination": 73.9938,
        "meta_ra_of_asc_node": 188.2606,
        "meta_arg_of_pericenter": 254.6822,
        "meta_mean_anomaly": 167.9594,
        "meta_ephemeris_type": 0,
        "meta_classification_type": "U",
        "meta_norad_cat_id": 35602,
        "meta_element_set_no": 999,
        "meta_rev_at_epoch": 90048,
        "meta_bstar": 0.00062605,
        "meta_mean_motion_dot": 0.00024271,
        "meta_mean_motion_ddot": 0,
        "tle_line1": "1 35602U 93036AMV 25343.92706197  .00024271  00000+0  62605-3 0  9992",
        "tle_line2": "2 35602  73.9938 188.2606 0090186 254.6822 167.9594 15.34923103900484"
      },
      "geometry": {
        "type": "Point",
        "coordinates": [
          31.0922204051032,
          -54.659627424662936
        ]
      }
    },
    {
      "type": "Feature",
      "properties": {
        "norad_id": 35605,
        "name": "COSMOS 2251 DEB",
        "group": "cosmos-2251-debris",
        "lat": -57.363396426875624,
        "lon": -45.21479701121397,
        "alt_km": 457.0573277997646,
        "timestamp": "2025-12-10T09:57:45.094216+00:00",
        "meta_object_name": "COSMOS 2251 DEB",
        "meta_object_id": "1993-036AMY",
        "meta_epoch": "2025-12-08T17:29:07.135584",
        "meta_mean_motion": 15.31836492,
        "meta_eccentricity": 0.00282066,
        "meta_inclination": 73.8723,
        "meta_ra_of_asc_node": 345.2823,
        "meta_arg_of_pericenter": 280.9051,
        "meta_mean_anomaly": 78.8978,
        "meta_ephemeris_type": 0,
        "meta_classification_type": "U",
        "meta_norad_cat_id": 35605,
        "meta_element_set_no": 999,
        "meta_rev_at_epoch": 65910,
        "meta_bstar": 0.0070125726,
        "meta_mean_motion_dot": 0.002247,
        "meta_mean_motion_ddot": 0,
        "tle_line1": "1 35605U 93036AMY 25342.72855481  .00224700  00000+0  70126-2 0  9998",
        "tle_line2": "2 35605  73.8723 345.2823 0028206 280.9051  78.8978 15.31836492659101"
      },
      "geometry": {
        "type": "Point",
        "coordinates": [
          -45.21479701121397,
          -57.363396426875624
        ]
      }
    },
    {
      "type": "Feature",
      "properties": {
        "norad_id": 35606,
        "name": "COSMOS 2251 DEB",
        "group": "cosmos-2251-debris",
        "lat": 40.28159200803767,
        "lon": -179.7495817734507,
        "alt_km": 1043.8205064443773,
        "timestamp": "2025-12-10T09:57:45.094227+00:00",
        "meta_object_name": "COSMOS 2251 DEB",
        "meta_object_id": "1993-036AMZ",
        "meta_epoch": "2025-12-09T08:10:26.094720",
        "meta_mean_motion": 13.41205491,
        "meta_eccentricity": 0.04577322,
        "meta_inclination": 73.8107,
        "meta_ra_of_asc_node": 16.2149,
        "meta_arg_of_pericenter": 222.4362,
        "meta_mean_anomaly": 134.0496,
        "meta_ephemeris_type": 0,
        "meta_classification_type": "U",
        "meta_norad_cat_id": 35606,
        "meta_element_set_no": 999,
        "meta_rev_at_epoch": 60994,
        "meta_bstar": 0.0014727579,
        "meta_mean_motion_dot": 1.492e-05,
        "meta_mean_motion_ddot": 0,
        "tle_line1": "1 35606U 93036AMZ 25343.34057980  .00001492  00000+0  14728-2 0  9993",
        "tle_line2": "2 35606  73.8107  16.2149 0457732 222.4362 134.0496 13.41205491609945"
      },
      "geometry": {
        "type": "Point",
        "coordinates": [
          -179.7495817734507,
          40.28159200803767
        ]
      }
    },
    {
      "type": "Feature",
      "properties": {
        "norad_id": 35611,
        "name": "COSMOS 2251 DEB",
        "group": "cosmos-2251-debris",
        "lat": -62.26754632256025,
        "lon": 36.86253705405775,
        "alt_km": 644.0579456597025,
        "timestamp": "2025-12-10T09:57:45.094237+00:00",
        "meta_object_name": "COSMOS 2251 DEB",
        "meta_object_id": "1993-036ANE",
        "meta_epoch": "2025-12-09T23:03:41.124096",
        "meta_mean_motion": 14.727217,
        "meta_eccentricity": 0.0021818,
        "meta_inclination": 74.0195,
        "meta_ra_of_asc_node": 184.7172,
        "meta_arg_of_pericenter": 258.0606,
        "meta_mean_anomaly": 101.812,
        "meta_ephemeris_type": 0,
        "meta_classification_type": "U",
        "meta_norad_cat_id": 35611,
        "meta_element_set_no": 999,
        "meta_rev_at_epoch": 87249,
        "meta_bstar": 0.0031287,
        "meta_mean_motion_dot": 0.00020072,
        "meta_mean_motion_ddot": 0,
        "tle_line1": "1 35611U 93036ANE 25343.96089264  .00020072  00000+0  31287-2 0  9991",
        "tle_line2": "2 35611  74.0195 184.7172 0021818 258.0606 101.8120 14.72721700872495"
      },
      "geometry": {
        "type": "Point",
        "coordinates": [
          36.86253705405775,
          -62.26754632256025
        ]
      }
    },
    {
      "type": "Feature",
      "properties": {
        "norad_id": 35614,
        "name": "COSMOS 2251 DEB",
        "group": "cosmos-2251-debris",
        "lat": 51.52494968861962,
        "lon": -6.80389847037878,
        "alt_km": 701.521409924364,
        "timestamp": "2025-12-10T09:57:45.094247+00:00",
        "meta_object_name": "COSMOS 2251 DEB",
        "meta_object_id": "1993-036ANH",
        "meta_epoch": "2025-12-08T16:47:37.057344",
        "meta_mean_motion": 14.66956711,
        "meta_eccentricity": 0.00760294,
        "meta_inclination": 73.959,
        "meta_ra_of_asc_node": 335.2957,
        "meta_arg_of_pericenter": 190.7656,
        "meta_mean_anomaly": 169.189,
        "meta_ephemeris_type": 0,
        "meta_classification_type": "U",
        "meta_norad_cat_id": 35614,
        "meta_element_set_no": 999,
        "meta_rev_at_epoch": 87670,
        "meta_bstar": 0.0013359828,
        "meta_mean_motion_dot": 7.786e-05,
        "meta_mean_motion_ddot": 0,
        "tle_line1": "1 35614U 93036ANH 25342.69973446  .00007786  00000+0  13360-2 0  9996",
        "tle_line2": "2 35614  73.9590 335.2957 0076029 190.7656 169.1890 14.66956711876704"
      },
      "geometry": {
        "type": "Point",
        "coordinates": [
          -6.80389847037878,
          51.52494968861962
        ]
      }
    },
    {
      "type": "Feature",
      "properties": {
        "norad_id": 35645,
        "name": "COSMOS 2251 DEB",
        "group": "cosmos-2251-debris",
        "lat": -43.00083538303602,
        "lon": 76.52866543382443,
        "alt_km": 725.2134896195339,
        "timestamp": "2025-12-10T09:57:45.094257+00:00",
        "meta_object_name": "COSMOS 2251 DEB",
        "meta_object_id": "1993-036ANL",
        "meta_epoch": "2025-12-10T00:12:18.796032",
        "meta_mean_motion": 14.45512802,
        "meta_eccentricity": 0.0069548,
        "meta_inclination": 73.9645,
        "meta_ra_of_asc_node": 92.847,
        "meta_arg_of_pericenter": 250.9584,
        "meta_mean_anomaly": 108.4031,
        "meta_ephemeris_type": 0,
        "meta_classification_type": "U",
        "meta_norad_cat_id": 35645,
        "meta_element_set_no": 999,
        "meta_rev_at_epoch": 86732,
        "meta_bstar": 0.0033862,
        "meta_mean_motion_dot": 0.00012297,
        "meta_mean_motion_ddot": 0,
        "tle_line1": "1 35645U 93036ANL 25344.00855088  .00012297  00000+0  33862-2 0  9990",
        "tle_line2": "2 35645  73.9645  92.8470 0069548 250.9584 108.4031 14.45512802867329"
      },
      "geometry": {
        "type": "Point",
        "coordinates": [
          76.52866543382443,
          -43.00083538303602
        ]
      }
    }
  ]
}